[{"OBJECT_NAME":"ONEWEB-0616","OBJECT_ID":"2023-004T","EPOCH":"2026-03-09T21:28:01.784640","MEAN_MOTION":13.17649183,"ECCENTRICITY":0.00017835,"INCLINATION":87.9156,"RA_OF_ASC_NODE":25.5826,"ARG_OF_PERICENTER":111.1762,"MEAN_ANOMALY":248.956,"EPHEMERIS_TYPE":0,"CLASSIFICATION_TYPE":"U","NORAD_CAT_ID":55157,"ELEMENT_SET_NO":999,"REV_AT_EPOCH":15462,"BSTAR":-0.00010483519,"MEAN_MOTION_DOT":-2.8e-7,"MEAN_MOTION_DDOT":0},{"OBJECT_NAME":"SL-14 DEB","OBJECT_ID":"1991-056S","EPOCH":"2026-03-09T08:35:20.457888","MEAN_MOTION":13.21714724,"ECCENTRICITY":0.00252218,"INCLINATION":82.5887,"RA_OF_ASC_NODE":214.289,"ARG_OF_PERICENTER":211.1552,"MEAN_ANOMALY":148.8079,"EPHEMERIS_TYPE":0,"CLASSIFICATION_TYPE":"U","NORAD_CAT_ID":45280,"ELEMENT_SET_NO":999,"REV_AT_EPOCH":29192,"BSTAR":0.0034035227,"MEAN_MOTION_DOT":1.418e-5,"MEAN_MOTION_DDOT":0}]
